      2.10          N: GNSS NAV DATA                        RINEX VERSION / TYPE
fic2rin                                 03/22/2021 00:17:21 PGM / RUN BY / DATE
                                                            END OF HEADER
19 21  3 21 22  0  0.0-2.328539267182e-05 5.002220859751e-12 0.000000000000e+00
    9.300000000000e+01 3.234375000000e+01 4.251248510136e-09-8.310310957808e-01
    1.763924956322e-06 9.104989585467e-03 4.727393388748e-06 5.153625810623e+03
    7.920000000000e+04-1.564621925354e-07 3.022978092703e+00-3.911554813385e-08
    9.813063389365e-01 3.010937500000e+02 1.796540040692e+00-8.214627886510e-09
    6.571702309208e-11 1.000000000000e+00 2.150000000000e+03 0.000000000000e+00
    2.400000000000e+00 0.000000000000e+00-1.583248376846e-08 9.300000000000e+01
    7.200000000000e+04 4.000000000000e+00
32 21  3 21 22  0  0.0 2.153962850571e-05 5.684341886081e-13 0.000000000000e+00
    7.600000000000e+01-7.093750000000e+00 4.521974072657e-09-2.587561178424e+00
   -3.334134817123e-07 4.745565354824e-03 8.026137948036e-06 5.153647512436e+03
    7.920000000000e+04-1.303851604462e-08-2.308254655957e-01-3.352761268616e-08
    9.575711382472e-01 2.231562500000e+02-2.406758389845e+00-7.871042146213e-09
    2.100087477073e-10 1.000000000000e+00 2.150000000000e+03 0.000000000000e+00
    2.400000000000e+00 0.000000000000e+00 4.656612873077e-10 7.600000000000e+01
    7.200000000000e+04 4.000000000000e+00
21 21  3 21 22  0  0.0 1.049693673849e-04 2.955857780762e-12 0.000000000000e+00
    8.900000000000e+01-6.193750000000e+01 4.564118685292e-09-3.132001478856e+00
   -2.929940819740e-06 2.424627111759e-02 4.654750227928e-06 5.153715335846e+03
    7.920000000000e+04 2.682209014893e-07-2.390999580284e+00 4.097819328308e-07
    9.565021679146e-01 2.814375000000e+02-1.168705331508e+00-7.919258440330e-09
   -4.714482091388e-11 1.000000000000e+00 2.150000000000e+03 0.000000000000e+00
    2.400000000000e+00 0.000000000000e+00-1.024454832077e-08 8.900000000000e+01
    7.200000000000e+04 4.000000000000e+00
13 21  3 21 22  0  0.0 1.105684787035e-04 4.433786671143e-12 0.000000000000e+00
    7.300000000000e+01 1.312500000000e+00 4.332323315798e-09 2.353177694176e+00
    8.940696716309e-08 4.906161455438e-03 7.944181561470e-06 5.153675561905e+03
    7.920000000000e+04 4.284083843231e-08-9.304188973960e-02-1.080334186554e-07
    9.684625911428e-01 2.303750000000e+02 1.004123761877e+00-7.791038813753e-09
    2.017941198208e-10 1.000000000000e+00 2.150000000000e+03 0.000000000000e+00
    2.400000000000e+00 0.000000000000e+00-1.117587089539e-08 7.300000000000e+01
    7.200000000000e+04 4.000000000000e+00
11 21  3 21 22  0  0.0 7.636379450560e-06 1.068656274583e-11 0.000000000000e+00
    3.500000000000e+01-2.462500000000e+01 5.866315784171e-09 4.490617955120e-02
   -1.231208443642e-06 1.529434893746e-02 3.838911652565e-06 5.154080034256e+03
    7.920000000000e+04-1.154839992523e-07-2.802959339010e+00-1.601874828339e-07
    9.145174752665e-01 2.836250000000e+02 2.087544677861e+00-9.130380316989e-09
   -1.500062483624e-11 1.000000000000e+00 2.150000000000e+03 0.000000000000e+00
    2.400000000000e+00 6.300000000000e+01-1.257285475731e-08 3.500000000000e+01
    7.200000000000e+04 4.000000000000e+00
26 21  3 21 22  0  0.0 6.132666021585e-05 5.343281372916e-12 0.000000000000e+00
    5.900000000000e+01 5.918750000000e+01 4.958063666110e-09-1.539287948927e+00
    2.833083271980e-06 5.782285123132e-03 6.815418601036e-06 5.153775428772e+03
    7.920000000000e+04 5.029141902924e-08 1.828625283732e+00-8.009374141693e-08
    9.424492261646e-01 2.361250000000e+02 2.970272251305e-01-8.221413883460e-09
   -1.750072897561e-11 1.000000000000e+00 2.150000000000e+03 0.000000000000e+00
    2.400000000000e+00 0.000000000000e+00 6.984919309616e-09 5.900000000000e+01
    7.200000000000e+04 4.000000000000e+00
25 21  3 21 22  0  0.0 1.033903099597e-04 7.389644451905e-12 0.000000000000e+00
    1.030000000000e+02 5.681250000000e+01 4.586262464812e-09-8.737162350682e-01
    3.205612301826e-06 9.918680996634e-03 7.355585694313e-06 5.153654462814e+03
    7.920000000000e+04 8.568167686462e-08 1.869479554710e+00 1.899898052216e-07
    9.615060879822e-01 2.414375000000e+02 9.553264879485e-01-8.131052976708e-09
   -7.036007363663e-11 1.000000000000e+00 2.150000000000e+03 0.000000000000e+00
    3.400000000000e+00 0.000000000000e+00 5.587935447693e-09 1.030000000000e+02
    7.200000000000e+04 4.000000000000e+00
20 21  3 21 22  0  0.0 5.239727906883e-04-3.410605131648e-13 0.000000000000e+00
    5.200000000000e+01-5.828125000000e+01 5.024137846936e-09 1.653663374060e-01
   -3.270804882050e-06 6.009489879943e-03 7.331371307373e-06 5.151694652557e+03
    7.920000000000e+04 1.173466444016e-07-1.414248244522e+00-1.862645149231e-08
    9.371197234380e-01 2.273437500000e+02 3.008523378057e+00-8.388206545329e-09
    1.428630936784e-12 1.000000000000e+00 2.150000000000e+03 0.000000000000e+00
    2.400000000000e+00 0.000000000000e+00-8.381903171539e-09 5.200000000000e+01
    7.200000000000e+04 4.000000000000e+00
28 21  3 21 22  0  0.0 5.986834876239e-04-5.684341886081e-12 0.000000000000e+00
    7.800000000000e+01 8.296875000000e+01 4.115171413407e-09-2.584228229719e+00
    4.300847649574e-06 1.777315966319e-02 7.687136530876e-06 5.153670898438e+03
    7.920000000000e+04 1.378357410431e-07 1.964516819359e+00 1.918524503708e-07
    9.733797952784e-01 2.320000000000e+02-1.347378355671e+00-7.550671658639e-09
   -4.285892810353e-12 1.000000000000e+00 2.150000000000e+03 0.000000000000e+00
    2.400000000000e+00 0.000000000000e+00-1.117587089539e-08 7.800000000000e+01
    7.200000000000e+04 4.000000000000e+00
17 21  3 21 22  0  0.0 4.135384224355e-04 6.252776074689e-12 0.000000000000e+00
    7.500000000000e+01 3.821875000000e+01 4.139100981598e-09 2.920673955119e+00
    2.088025212288e-06 1.341461867560e-02 4.226341843605e-06 5.153570947647e+03
    7.920000000000e+04 2.309679985046e-07 2.977768123583e+00-1.173466444016e-07
    9.828298232871e-01 3.056875000000e+02-1.572214146036e+00-7.846041104820e-09
   -2.035799084918e-11 1.000000000000e+00 2.150000000000e+03 0.000000000000e+00
    2.400000000000e+00 0.000000000000e+00-1.117587089539e-08 7.500000000000e+01
    7.200000000000e+04 4.000000000000e+00
23 21  3 21 22  0  0.0 1.168665476143e-04-1.136868377216e-12 0.000000000000e+00
    5.300000000000e+01-5.706250000000e+01 4.368396246952e-09 4.245778777385e-01
   -3.168359398842e-06 1.071885926649e-03 8.145347237587e-06 5.153649372101e+03
    7.920000000000e+04 5.960464477539e-08-1.296634073831e+00-2.421438694000e-08
    9.632437303735e-01 2.267812500000e+02 2.510404412443e+00-7.955688529218e-09
    1.214336296267e-11 1.000000000000e+00 2.150000000000e+03 0.000000000000e+00
    2.400000000000e+00 0.000000000000e+00-8.381903171539e-09 3.090000000000e+02
    7.200000000000e+04 4.000000000000e+00
14 21  3 21 22  0  0.0 9.963242337108e-05-6.821210263297e-13 0.000000000000e+00
    1.760000000000e+02 7.178125000000e+01 4.572690470912e-09 1.452421949261e-01
    3.695487976074e-06 4.987451247871e-04 7.936730980873e-06 5.153748174667e+03
    7.920000000000e+04-2.235174179077e-08 1.916054588782e+00 1.303851604462e-08
    9.576813501066e-01 2.237812500000e+02 2.334143744582e+00-8.054264063856e-09
   -8.178912113090e-11 1.000000000000e+00 2.150000000000e+03 0.000000000000e+00
    2.400000000000e+00 0.000000000000e+00-7.916241884232e-09 6.880000000000e+02
    7.200000000000e+04 4.000000000000e+00
25 21  3 21 21 59 44.0 1.033903099597e-04 7.389644451905e-12 0.000000000000e+00
    0.000000000000e+00 5.681250000000e+01 4.586262464812e-09-8.760498483411e-01
    3.205612301826e-06 9.918679017574e-03 7.355585694313e-06 5.153654464722e+03
    7.918400000000e+04 8.568167686462e-08 1.869479689299e+00 1.899898052216e-07
    9.615060894452e-01 2.414375000000e+02 9.553262451041e-01-8.131052976708e-09
   -7.036007363663e-11 1.000000000000e+00 2.150000000000e+03 0.000000000000e+00
    2.400000000000e+00 0.000000000000e+00 5.587935447693e-09 0.000000000000e+00
    7.371000000000e+04 4.000000000000e+00
30 21  3 21 21 59 44.0-4.017772153020e-04-5.456968210638e-12 0.000000000000e+00
    1.000000000000e+01 2.365625000000e+01 5.134856744537e-09 7.328339631904e-02
    1.281499862671e-06 4.984845407307e-03 7.428228855133e-06 5.153726873398e+03
    7.918400000000e+04 8.940696716309e-08 8.500551063101e-01 3.539025783539e-08
    9.371738631103e-01 2.234687500000e+02-2.830219848966e+00-8.311417632477e-09
   -1.267909956396e-10 1.000000000000e+00 2.150000000000e+03 0.000000000000e+00
    2.400000000000e+00 0.000000000000e+00 3.725290298462e-09 1.000000000000e+01
    7.383000000000e+04 4.000000000000e+00
 1 21  3 21 21 59 44.0 7.357778958976e-04-8.981260180008e-12 0.000000000000e+00
    8.000000000000e+00-5.812500000000e+01 4.134457931054e-09 7.777852781531e-01
   -2.788379788399e-06 1.056695147417e-02 5.608424544334e-06 5.153689626694e+03
    7.918400000000e+04-6.146728992462e-08-2.309072122877e+00 1.322478055954e-07
    9.835961070916e-01 2.830625000000e+02 8.221046754110e-01-8.138910446860e-09
   -1.907222300607e-10 1.000000000000e+00 2.150000000000e+03 0.000000000000e+00
    2.400000000000e+00 0.000000000000e+00 4.656612873077e-09 8.000000000000e+00
    7.392000000000e+04 4.000000000000e+00
 1 21  3 21 23 59 44.0 7.357131689787e-04-8.981260180008e-12 0.000000000000e+00
    9.000000000000e+00-5.262500000000e+01 4.139815297067e-09 1.828014999659e+00
   -2.831220626831e-06 1.056703040376e-02 5.824491381645e-06 5.153688489914e+03
    8.638400000000e+04-3.147870302200e-07-2.309131390077e+00-4.656612873077e-08
    9.835958232855e-01 2.816562500000e+02 8.220441398609e-01-7.957474317889e-09
   -1.250052069686e-11 1.000000000000e+00 2.150000000000e+03 0.000000000000e+00
    2.400000000000e+00 0.000000000000e+00 4.656612873077e-09 9.000000000000e+00
    7.920000000000e+04 4.000000000000e+00
